start=new Date('2022-04-08T00:00:00.000Z').valueOf();
sats=[{"CLASSIFICATION_TYPE":"U","EPHEMERIS_TYPE":"0","LAUNCH_DATE":"2022-02-25","NORAD_CAT_ID":"51778","COUNTRY_CODE":"US","OBJECT_TYPE":"PAYLOAD","EPOCH":"2022-04-07T22:00:00.999936","INCLINATION":"53.2176","PERIAPSIS":"349.033","BSTAR":"-0.00005759600000","SITE":"AFWTR","PERIOD":"91.532","MEAN_MOTION_DOT":"-0.00008699","GP_ID":"200704576","MEAN_ELEMENT_THEORY":"SGP4","MEAN_MOTION":"15.73214253","ARG_OF_PERICENTER":"90.3893","CENTER_NAME":"EARTH","TLE_LINE2":"2 51778  53.2176 299.0147 0001020  90.3893 305.6229 15.73214253  3688","APOAPSIS":"350.406","TLE_LINE1":"1 51778U 22017L   22097.91667824 -.00008699  00000-0 -57596-4 0  9993","OBJECT_ID":"2022-017L","MEAN_ANOMALY":"305.6229","RCS_SIZE":"LARGE","REF_FRAME":"TEME","ELEMENT_SET_NO":"999","TIME_SYSTEM":"UTC","FILE":"3392478","ECCENTRICITY":"0.00010200","OBJECT_NAME":"STARLINK-3615","SEMIMAJOR_AXIS":"6727.855","DECAY_DATE":null,"RA_OF_ASC_NODE":"299.0147","MEAN_MOTION_DDOT":"0.0000000000000","REV_AT_EPOCH":"368"},{"MEAN_MOTION":"15.73204646","MEAN_MOTION_DOT":"-0.00008978","PERIOD":"91.533","SITE":"AFWTR","MEAN_ELEMENT_THEORY":"SGP4","GP_ID":"200703877","MEAN_ANOMALY":"169.8921","RCS_SIZE":"LARGE","OBJECT_ID":"2022-017M","ARG_OF_PERICENTER":"54.5185","CENTER_NAME":"EARTH","TLE_LINE1":"1 51779U 22017M   22097.91667824 -.00008978  00000-0 -59607-4 0  9999","APOAPSIS":"350.682","TLE_LINE2":"2 51779  53.2137 299.3540 0001390  54.5185 169.8921 15.73204646  3697","NORAD_CAT_ID":"51779","EPOCH":"2022-04-07T22:00:00.999936","COUNTRY_CODE":"US","OBJECT_TYPE":"PAYLOAD","EPHEMERIS_TYPE":"0","CLASSIFICATION_TYPE":"U","LAUNCH_DATE":"2022-02-25","BSTAR":"-0.00005960700000","PERIAPSIS":"348.812","INCLINATION":"53.2137","SEMIMAJOR_AXIS":"6727.882","DECAY_DATE":null,"OBJECT_NAME":"STARLINK-3611","MEAN_MOTION_DDOT":"0.0000000000000","REV_AT_EPOCH":"369","RA_OF_ASC_NODE":"299.3540","REF_FRAME":"TEME","ELEMENT_SET_NO":"999","TIME_SYSTEM":"UTC","FILE":"3392478","ECCENTRICITY":"0.00013900"},{"DECAY_DATE":null,"SEMIMAJOR_AXIS":"6727.911","OBJECT_NAME":"STARLINK-3617","REV_AT_EPOCH":"369","MEAN_MOTION_DDOT":"0.0000000000000","RA_OF_ASC_NODE":"299.3507","REF_FRAME":"TEME","ELEMENT_SET_NO":"999","FILE":"3392478","ECCENTRICITY":"0.00013410","TIME_SYSTEM":"UTC","MEAN_MOTION":"15.73194314","GP_ID":"200704396","MEAN_ELEMENT_THEORY":"SGP4","SITE":"AFWTR","PERIOD":"91.534","MEAN_MOTION_DOT":"0.00030287","OBJECT_ID":"2022-017N","RCS_SIZE":"LARGE","MEAN_ANOMALY":"150.1146","TLE_LINE2":"2 51780  53.2143 299.3507 0001341  76.8407 150.1146 15.73194314  3691","TLE_LINE1":"1 51780U 22017N   22097.91667824  .00030287  00000-0  21949-3 0  9994","APOAPSIS":"350.679","CENTER_NAME":"EARTH","ARG_OF_PERICENTER":"76.8407","OBJECT_TYPE":"PAYLOAD","COUNTRY_CODE":"US","EPOCH":"2022-04-07T22:00:00.999936","NORAD_CAT_ID":"51780","LAUNCH_DATE":"2022-02-25","CLASSIFICATION_TYPE":"U","EPHEMERIS_TYPE":"0","PERIAPSIS":"348.874","BSTAR":"0.00021949000000","INCLINATION":"53.2143"},{"TIME_SYSTEM":"UTC","FILE":"3392478","ECCENTRICITY":"0.00010780","REF_FRAME":"TEME","ELEMENT_SET_NO":"999","MEAN_MOTION_DDOT":"0.0000000000000","REV_AT_EPOCH":"369","RA_OF_ASC_NODE":"299.3559","SEMIMAJOR_AXIS":"6727.821","DECAY_DATE":null,"OBJECT_NAME":"STARLINK-3580","BSTAR":"0.00004921600000","PERIAPSIS":"348.960","INCLINATION":"53.2152","NORAD_CAT_ID":"51781","EPOCH":"2022-04-07T22:00:00.999936","COUNTRY_CODE":"US","OBJECT_TYPE":"PAYLOAD","EPHEMERIS_TYPE":"0","CLASSIFICATION_TYPE":"U","LAUNCH_DATE":"2022-02-25","MEAN_ANOMALY":"150.3625","RCS_SIZE":"LARGE","OBJECT_ID":"2022-017P","CENTER_NAME":"EARTH","ARG_OF_PERICENTER":"74.6174","APOAPSIS":"350.411","TLE_LINE1":"1 51781U 22017P   22097.91667824  .00006300  00000-0  49216-4 0  9992","TLE_LINE2":"2 51781  53.2152 299.3559 0001078  74.6174 150.3625 15.73226141  3691","MEAN_MOTION":"15.73226141","MEAN_MOTION_DOT":"0.00006300","PERIOD":"91.532","SITE":"AFWTR","MEAN_ELEMENT_THEORY":"SGP4","GP_ID":"200703973"},{"TIME_SYSTEM":"UTC","ECCENTRICITY":"0.00012970","FILE":"3392478","REF_FRAME":"TEME","ELEMENT_SET_NO":"999","RA_OF_ASC_NODE":"301.3210","MEAN_MOTION_DDOT":"0.0000000000000","REV_AT_EPOCH":"367","OBJECT_NAME":"STARLINK-3616","SEMIMAJOR_AXIS":"6795.228","DECAY_DATE":null,"INCLINATION":"53.2154","PERIAPSIS":"416.211","BSTAR":"0.00052470000000","CLASSIFICATION_TYPE":"U","EPHEMERIS_TYPE":"0","LAUNCH_DATE":"2022-02-25","NORAD_CAT_ID":"51782","COUNTRY_CODE":"US","OBJECT_TYPE":"PAYLOAD","EPOCH":"2022-04-07T22:00:00.999936","CENTER_NAME":"EARTH","ARG_OF_PERICENTER":"46.0900","TLE_LINE2":"2 51782  53.2154 301.3210 0001297  46.0900 254.0651 15.49875302  3676","APOAPSIS":"417.974","TLE_LINE1":"1 51782U 22017Q   22097.91667824  .00029430  00000-0  52470-3 0  9997","OBJECT_ID":"2022-017Q","RCS_SIZE":"LARGE","MEAN_ANOMALY":"254.0651","SITE":"AFWTR","PERIOD":"92.911","MEAN_MOTION_DOT":"0.00029430","GP_ID":"200704497","MEAN_ELEMENT_THEORY":"SGP4","MEAN_MOTION":"15.49875302"},{"MEAN_MOTION_DDOT":"0.0000000000000","REV_AT_EPOCH":"369","RA_OF_ASC_NODE":"299.3507","SEMIMAJOR_AXIS":"6727.939","DECAY_DATE":null,"OBJECT_NAME":"STARLINK-3628","TIME_SYSTEM":"UTC","ECCENTRICITY":"0.00010490","FILE":"3392478","ELEMENT_SET_NO":"999","REF_FRAME":"TEME","MEAN_ANOMALY":"148.2896","RCS_SIZE":"LARGE","OBJECT_ID":"2022-017R","CENTER_NAME":"EARTH","ARG_OF_PERICENTER":"78.0384","TLE_LINE1":"1 51783U 22017R   22097.91667824  .00058752  00000-0  42038-3 0  9996","APOAPSIS":"350.510","TLE_LINE2":"2 51783  53.2140 299.3507 0001049  78.0384 148.2896 15.73184579  3696","MEAN_MOTION":"15.73184579","MEAN_MOTION_DOT":"0.00058752","PERIOD":"91.534","SITE":"AFWTR","MEAN_ELEMENT_THEORY":"SGP4","GP_ID":"200704200","BSTAR":"0.00042038000000","PERIAPSIS":"349.098","INCLINATION":"53.2140","NORAD_CAT_ID":"51783","EPOCH":"2022-04-07T22:00:00.999936","COUNTRY_CODE":"US","OBJECT_TYPE":"PAYLOAD","EPHEMERIS_TYPE":"0","CLASSIFICATION_TYPE":"U","LAUNCH_DATE":"2022-02-25"},{"BSTAR":"0.00002718700000","PERIAPSIS":"415.860","INCLINATION":"53.2154","EPOCH":"2022-04-07T22:00:00.999936","COUNTRY_CODE":"US","OBJECT_TYPE":"PAYLOAD","NORAD_CAT_ID":"51784","LAUNCH_DATE":"2022-02-25","EPHEMERIS_TYPE":"0","CLASSIFICATION_TYPE":"U","MEAN_ANOMALY":"250.4066","RCS_SIZE":"LARGE","OBJECT_ID":"2022-017S","TLE_LINE1":"1 51784U 22017S   22097.91667824  .00001092  00000-0  27187-4 0  9991","APOAPSIS":"418.180","TLE_LINE2":"2 51784  53.2154 301.3203 0001707  57.4185 250.4066 15.49900060  3677","CENTER_NAME":"EARTH","ARG_OF_PERICENTER":"57.4185","MEAN_MOTION":"15.49900060","MEAN_ELEMENT_THEORY":"SGP4","GP_ID":"200704074","MEAN_MOTION_DOT":"0.00001092","PERIOD":"92.909","SITE":"AFWTR","FILE":"3392478","ECCENTRICITY":"0.00017070","TIME_SYSTEM":"UTC","REF_FRAME":"TEME","ELEMENT_SET_NO":"999","REV_AT_EPOCH":"367","MEAN_MOTION_DDOT":"0.0000000000000","RA_OF_ASC_NODE":"301.3203","DECAY_DATE":null,"SEMIMAJOR_AXIS":"6795.155","OBJECT_NAME":"STARLINK-3632"},{"ARG_OF_PERICENTER":"75.6863","CENTER_NAME":"EARTH","TLE_LINE2":"2 51785  53.2141 299.3481 0001402  75.6863 151.9236 15.73220693  3695","TLE_LINE1":"1 51785U 22017T   22097.91667824 -.00008633  00000-0 -57100-4 0  9990","APOAPSIS":"350.644","OBJECT_ID":"2022-017T","MEAN_ANOMALY":"151.9236","RCS_SIZE":"LARGE","SITE":"AFWTR","MEAN_MOTION_DOT":"-0.00008633","PERIOD":"91.532","GP_ID":"200704296","MEAN_ELEMENT_THEORY":"SGP4","MEAN_MOTION":"15.73220693","INCLINATION":"53.2141","PERIAPSIS":"348.758","BSTAR":"-0.00005710000000","CLASSIFICATION_TYPE":"U","EPHEMERIS_TYPE":"0","LAUNCH_DATE":"2022-02-25","NORAD_CAT_ID":"51785","OBJECT_TYPE":"PAYLOAD","COUNTRY_CODE":"US","EPOCH":"2022-04-07T22:00:00.999936","RA_OF_ASC_NODE":"299.3481","MEAN_MOTION_DDOT":"0.0000000000000","REV_AT_EPOCH":"369","OBJECT_NAME":"STARLINK-3646","SEMIMAJOR_AXIS":"6727.836","DECAY_DATE":null,"TIME_SYSTEM":"UTC","ECCENTRICITY":"0.00014020","FILE":"3392478","REF_FRAME":"TEME","ELEMENT_SET_NO":"999"},{"APOAPSIS":"418.159","TLE_LINE1":"1 51786U 22017U   22097.91667824  .00000407  00000-0  15141-4 0  9999","TLE_LINE2":"2 51786  53.2160 301.3175 0001554  65.7930 257.3471 15.49871694  3670","ARG_OF_PERICENTER":"65.7930","CENTER_NAME":"EARTH","MEAN_ANOMALY":"257.3471","RCS_SIZE":"LARGE","OBJECT_ID":"2022-017U","MEAN_ELEMENT_THEORY":"SGP4","GP_ID":"200704577","MEAN_MOTION_DOT":"0.00000407","PERIOD":"92.911","SITE":"AFWTR","MEAN_MOTION":"15.49871694","INCLINATION":"53.2160","BSTAR":"0.00001514100000","PERIAPSIS":"416.047","LAUNCH_DATE":"2022-02-25","EPHEMERIS_TYPE":"0","CLASSIFICATION_TYPE":"U","EPOCH":"2022-04-07T22:00:00.999936","COUNTRY_CODE":"US","OBJECT_TYPE":"PAYLOAD","NORAD_CAT_ID":"51786","RA_OF_ASC_NODE":"301.3175","REV_AT_EPOCH":"367","MEAN_MOTION_DDOT":"0.0000000000000","OBJECT_NAME":"STARLINK-3638","DECAY_DATE":null,"SEMIMAJOR_AXIS":"6795.238","FILE":"3392478","ECCENTRICITY":"0.00015540","TIME_SYSTEM":"UTC","ELEMENT_SET_NO":"999","REF_FRAME":"TEME"},{"OBJECT_TYPE":"PAYLOAD","COUNTRY_CODE":"US","EPOCH":"2022-04-07T22:00:00.999936","NORAD_CAT_ID":"51787","LAUNCH_DATE":"2022-02-25","CLASSIFICATION_TYPE":"U","EPHEMERIS_TYPE":"0","PERIAPSIS":"415.833","BSTAR":"-0.00118210000000","INCLINATION":"53.2171","MEAN_MOTION":"15.49910493","GP_ID":"200703878","MEAN_ELEMENT_THEORY":"SGP4","SITE":"AFWTR","PERIOD":"92.909","MEAN_MOTION_DOT":"-0.00067033","OBJECT_ID":"2022-017V","MEAN_ANOMALY":"250.6609","RCS_SIZE":"LARGE","TLE_LINE2":"2 51787  53.2171 301.3230 0001702  41.8726 250.6609 15.49910493  3678","TLE_LINE1":"1 51787U 22017V   22097.91667824 -.00067033  00000-0 -11821-2 0  9999","APOAPSIS":"418.146","CENTER_NAME":"EARTH","ARG_OF_PERICENTER":"41.8726","REF_FRAME":"TEME","ELEMENT_SET_NO":"999","ECCENTRICITY":"0.00017020","FILE":"3392478","TIME_SYSTEM":"UTC","DECAY_DATE":null,"SEMIMAJOR_AXIS":"6795.125","OBJECT_NAME":"STARLINK-3619","REV_AT_EPOCH":"367","MEAN_MOTION_DDOT":"0.0000000000000","RA_OF_ASC_NODE":"301.3230"}];
